[{"OBJECT_NAME":"YAOGAN-30 04B","OBJECT_ID":"2017-085B","EPOCH":"2026-03-09T23:08:06.218304","MEAN_MOTION":15.02136468,"ECCENTRICITY":0.00051709,"INCLINATION":34.9961,"RA_OF_ASC_NODE":34.6701,"ARG_OF_PERICENTER":206.1156,"MEAN_ANOMALY":153.9292,"EPHEMERIS_TYPE":0,"CLASSIFICATION_TYPE":"U","NORAD_CAT_ID":43082,"ELEMENT_SET_NO":999,"REV_AT_EPOCH":44776,"BSTAR":0.0003202307,"MEAN_MOTION_DOT":4.272e-5,"MEAN_MOTION_DDOT":0},{"OBJECT_NAME":"STARLINK-34951","OBJECT_ID":"2025-184W","EPOCH":"2026-03-09T17:08:57.119136","MEAN_MOTION":15.05647708,"ECCENTRICITY":9.497e-5,"INCLINATION":97.6018,"RA_OF_ASC_NODE":122.6725,"ARG_OF_PERICENTER":108.144,"MEAN_ANOMALY":251.989,"EPHEMERIS_TYPE":0,"CLASSIFICATION_TYPE":"U","NORAD_CAT_ID":65293,"ELEMENT_SET_NO":999,"REV_AT_EPOCH":3130,"BSTAR":0.00012663302,"MEAN_MOTION_DOT":1.767e-5,"MEAN_MOTION_DDOT":0}]
